{
    "links": {
        "self": "http://www.neowsapp.com/rest/v1/neo/3968753?api_key=iIulBulltgU6a56xZRHN4H3l9WmuAYTsLGpBGhQ2"
    },
    "id": "3968753",
    "neo_reference_id": "3968753",
    "name": "(2019 YZ4)",
    "designation": "2019 YZ4",
    "nasa_jpl_url": "http://ssd.jpl.nasa.gov/sbdb.cgi?sstr=3968753",
    "absolute_magnitude_h": 24.5,
    "estimated_diameter": {
        "kilometers": {
            "estimated_diameter_min": 0.0334622374,
            "estimated_diameter_max": 0.0748238376
        },
        "meters": {
            "estimated_diameter_min": 33.4622374455,
            "estimated_diameter_max": 74.8238376074
        },
        "miles": {
            "estimated_diameter_min": 0.0207924639,
            "estimated_diameter_max": 0.0464933628
        },
        "feet": {
            "estimated_diameter_min": 109.7842471007,
            "estimated_diameter_max": 245.4850393757
        }
    },
    "is_potentially_hazardous_asteroid": false,
    "close_approach_data": [
        {
            "close_approach_date": "2019-12-18",
            "close_approach_date_full": "2019-Dec-18 10:03",
            "epoch_date_close_approach": 1576663380000,
            "relative_velocity": {
                "kilometers_per_second": "17.2524049336",
                "kilometers_per_hour": "62108.6577608153",
                "miles_per_hour": "38591.9045958799"
            },
            "miss_distance": {
                "astronomical": "0.0590883506",
                "lunar": "22.9853683834",
                "kilometers": "8839491.391573222",
                "miles": "5492605.2552335836"
            },
            "orbiting_body": "Earth"
        }
    ],
    "orbital_data": {
        "orbit_id": "4",
        "orbit_determination_date": "2020-01-06 05:39:53",
        "first_observation_date": "2019-12-30",
        "last_observation_date": "2020-01-06",
        "data_arc_in_days": 7,
        "observations_used": 31,
        "orbit_uncertainty": "9",
        "minimum_orbit_intersection": ".00256248",
        "jupiter_tisserand_invariant": "2.977",
        "epoch_osculation": "2458849.5",
        "eccentricity": ".7255744927491151",
        "semi_major_axis": "2.587079105815746",
        "inclination": "5.435952452054041",
        "ascending_node_longitude": "92.28461044369523",
        "orbital_period": "1519.892911582832",
        "perihelion_distance": ".7099604959116518",
        "perihelion_argument": "288.1419458469883",
        "aphelion_distance": "4.46419771571984",
        "perihelion_time": "2458796.137331030404",
        "mean_anomaly": "12.6394173449026",
        "mean_motion": ".2368587926534195",
        "equinox": "J2000",
        "orbit_class": {
            "orbit_class_type": "APO",
            "orbit_class_description": "Near-Earth asteroid orbits which cross the Earth’s orbit similar to that of 1862 Apollo",
            "orbit_class_range": "a (semi-major axis) > 1.0 AU; q (perihelion) < 1.017 AU"
        }
    },
    "is_sentry_object": false
}